COSMOS 2251 DEB         
1 34723U 93036YR  17345.91006313  .00009938  00000-0  68148-3 0  9992
2 34723  73.9857 289.6885 0097995  31.2783 329.4183 15.02211508465818
